NORAD_CAT_ID,OBJECT_NAME,OBJECT_TYPE,EPOCH,MEAN_MOTION,ECCENTRICITY,INCLINATION,RA_OF_ASC_NODE,ARG_OF_PERICENTER,MEAN_ANOMALY,BSTAR,MEAN_MOTION_DOT,MEAN_MOTION_DDOT,TLE_LINE0,TLE_LINE1,TLE_LINE2,SEMIMAJOR_AXIS,PERIOD,APOGEE,PERIGEE,DECAYED
52002.0,STARLINK-3668,PAYLOAD,2023-04-03 04:35:35,15.0884686,0.0001398,53.216,149.2643,104.8861,255.2286,0.0006985,0.00010848,0.0,0 STARLINK-3668,1 52002U 22025AY  23093.19138283  .00010848  00000-0  69850-3 0  9994,2 52002  53.2160 149.2643 0001398 104.8861 255.2286 15.08846860 60671,6917.859,95.437,540.692,538.757,0.0
52002.0,STARLINK-3668,PAYLOAD,2023-04-03 12:32:30,15.08857004,0.0001346,53.2158,147.7778,103.9705,256.1437,0.00072747,0.00011314,0.0,0 STARLINK-3668,1 52002U 22025AY  23093.52257939  .00011314  00000-0  72747-3 0  9999,2 52002  53.2158 147.7778 0001346 103.9705 256.1437 15.08857004 59218,6917.828,95.436,540.625,538.762,0.0
52002.0,STARLINK-3668,PAYLOAD,2023-04-04 10:47:53,15.0885994,0.000129,53.2151,143.614,104.0473,256.0662,0.00033483,5.048e-05,0.0,0 STARLINK-3668,1 52002U 22025AY  23094.44992969  .00005048  00000-0  33483-3 0  9991,2 52002  53.2151 143.6140 0001290 104.0473 256.0662 15.08859940 60864,6917.819,95.436,540.577,538.792,0.0
52002.0,STARLINK-3668,PAYLOAD,2023-04-05 04:17:08,15.08845022,0.000137,53.2158,140.3439,106.1391,253.9752,2.3323e-05,8.3e-07,0.0,0 STARLINK-3668,1 52002U 22025AY  23095.17857122  .00000083  00000-0  23323-4 0  9990,2 52002  53.2158 140.3439 0001370 106.1391 253.9752 15.08845022 60971,6917.865,95.437,540.678,538.782,0.0
52002.0,STARLINK-3668,PAYLOAD,2023-04-05 10:38:41,15.08842853,0.0001244,53.2148,139.1525,102.9431,257.17,-2.9367e-05,-7.55e-06,0.0,0 STARLINK-3668,1 52002U 22025AY  23095.44353269 -.00000755  00000-0 -29367-4 0  9995,2 52002  53.2148 139.1525 0001244 102.9431 257.1700 15.08842853 59506,6917.872,95.437,540.597,538.876,0.0
52002.0,STARLINK-3668,PAYLOAD,2023-04-05 20:11:00,15.08843299,0.0001162,53.2149,137.3682,100.9687,259.1436,-1.8919e-05,-5.89e-06,0.0,0 STARLINK-3668,1 52002U 22025AY  23095.84097350 -.00000589  00000-0 -18919-4 0  9991,2 52002  53.2149 137.3682 0001162 100.9687 259.1436 15.08843299 59560,6917.87,95.437,540.539,538.931,0.0
52002.0,STARLINK-3668,PAYLOAD,2023-04-06 08:54:05,15.08847365,0.0001145,53.2143,134.9895,94.5717,265.5406,7.5747e-05,9.18e-06,0.0,0 STARLINK-3668,1 52002U 22025AY  23096.37089165  .00000918  00000-0  75747-4 0  9991,2 52002  53.2143 134.9895 0001145  94.5717 265.5406 15.08847365 61150,6917.858,95.437,540.515,538.931,0.0
52002.0,STARLINK-3668,PAYLOAD,2023-04-06 12:04:51,15.08850963,0.0001315,53.2145,134.3942,104.2816,255.8322,0.00011612,1.561e-05,0.0,0 STARLINK-3668,1 52002U 22025AY  23096.50336928  .00001561  00000-0  11612-3 0  9993,2 52002  53.2145 134.3942 0001315 104.2816 255.8322 15.08850963 59667,6917.847,95.437,540.622,538.802,0.0
52002.0,STARLINK-3668,PAYLOAD,2023-04-07 02:23:19,15.088381,0.0001359,53.2134,131.7174,101.6612,258.4533,0.00024707,3.646e-05,0.0,0 STARLINK-3668,1 52002U 22025AY  23097.09953604  .00003646  00000-0  24707-3 0  9999,2 52002  53.2134 131.7174 0001359 101.6612 258.4533 15.08838100 61267,6917.886,95.438,540.691,538.811,0.0
52002.0,STARLINK-3668,PAYLOAD,2023-04-07 08:44:52,15.08845426,0.0001219,53.2139,130.5281,98.4854,261.6276,0.00018931,2.727e-05,0.0,0 STARLINK-3668,1 52002U 22025AY  23097.36449217  .00002727  00000-0  18931-3 0  9990,2 52002  53.2139 130.5281 0001219  98.4854 261.6276 15.08845426 59798,6917.864,95.437,540.572,538.886,0.0
52002.0,STARLINK-3668,PAYLOAD,2023-04-08 08:35:39,15.08842431,0.0001478,53.2162,126.0676,112.3643,247.7506,3.9603e-05,3.42e-06,0.0,0 STARLINK-3668,1 52002U 22025AY  23098.35809236  .00000342  00000-0  39603-4 0  9992,2 52002  53.2162 126.0676 0001478 112.3643 247.7506 15.08842431 61451,6917.873,95.437,540.76,538.715,0.0
52002.0,STARLINK-3668,PAYLOAD,2023-04-09 02:04:54,15.08836297,0.0001332,53.2164,122.7981,101.43,258.6842,1.4747e-05,-5.3e-07,0.0,0 STARLINK-3668,1 52002U 22025AY  23099.08673739 -.00000053  00000-0  14747-4 0  9992,2 52002  53.2164 122.7981 0001332 101.4300 258.6842 15.08836297 61562,6917.892,95.438,540.678,538.835,0.0
52002.0,STARLINK-3668,PAYLOAD,2023-04-09 08:26:26,15.08834545,0.0001276,53.2161,121.6083,96.9719,263.1418,-1.3034e-05,-4.95e-06,0.0,0 STARLINK-3668,1 52002U 22025AY  23099.35169962 -.00000495  00000-0 -13034-4 0  9999,2 52002  53.2161 121.6083 0001276  96.9719 263.1418 15.08834545 60090,6917.897,95.438,540.645,538.879,0.0
52002.0,STARLINK-3668,PAYLOAD,2023-04-10 06:41:50,15.08842665,0.0001228,53.2159,117.444,94.6887,265.4245,9.5897e-05,1.239e-05,0.0,0 STARLINK-3668,1 52002U 22025AY  23100.27905277  .00001239  00000-0  95897-4 0  9992,2 52002  53.2159 117.4440 0001228  94.6887 265.4245 15.08842665 61743,6917.872,95.437,540.587,538.888,0.0
52002.0,STARLINK-3668,PAYLOAD,2023-04-10 17:49:32,15.0883986,0.0001211,53.2162,115.3623,90.3326,269.7805,0.00010865,1.442e-05,0.0,0 STARLINK-3668,1 52002U 22025AY  23100.74273439  .00001442  00000-0  10865-3 0  9999,2 52002  53.2162 115.3623 0001211  90.3326 269.7805 15.08839860 60303,6917.881,95.438,540.584,538.908,0.0
52002.0,STARLINK-3668,PAYLOAD,2023-04-11 09:43:23,15.0883798,0.0001386,53.2173,112.3895,96.1336,263.9814,9.247e-05,1.184e-05,0.0,0 STARLINK-3668,1 52002U 22025AY  23101.40513775  .00001184  00000-0  92470-4 0  9999,2 52002  53.2173 112.3895 0001386  96.1336 263.9814 15.08837980 60409,6917.887,95.438,540.71,538.793,0.0
52002.0,STARLINK-3668,PAYLOAD,2023-04-11 17:40:19,15.08839872,0.0001465,53.2178,110.903,85.9195,274.1964,5.5438e-05,5.94e-06,0.0,0 STARLINK-3668,1 52002U 22025AY  23101.73633846  .00000594  00000-0  55438-4 0  9994,2 52002  53.2178 110.9030 0001465  85.9195 274.1964 15.08839872 60453,6917.881,95.438,540.759,538.732,0.0
52002.0,STARLINK-3668,PAYLOAD,2023-04-12 04:48:01,15.08838313,0.0001515,53.2177,108.8213,85.7416,274.375,1.2691e-06,-2.68e-06,0.0,0 STARLINK-3668,1 52002U 22025AY  23102.20002103 -.00000268  00000-0  12691-5 0  9997,2 52002  53.2177 108.8213 0001515  85.7416 274.3750 15.08838313 62031,6917.886,95.438,540.799,538.702,0.0
52002.0,STARLINK-3668,PAYLOAD,2023-04-12 07:58:48,15.088391,0.0001521,53.2172,108.2263,84.6059,275.5106,6.6745e-06,-1.82e-06,0.0,0 STARLINK-3668,1 52002U 22025AY  23102.33250028 -.00000182  00000-0  66745-5 0  9996,2 52002  53.2172 108.2263 0001521  84.6059 275.5106 15.08839100 60540,6917.883,95.438,540.8,538.696,0.0
52002.0,STARLINK-3668,PAYLOAD,2023-04-13 09:24:57,15.08842849,0.0001378,53.2161,103.4675,87.1749,272.9401,6.5927e-05,7.62e-06,0.0,0 STARLINK-3668,1 52002U 22025AY  23103.39233603  .00000762  00000-0  65927-4 0  9996,2 52002  53.2161 103.4675 0001378  87.1749 272.9401 15.08842849 60707,6917.872,95.437,540.69,538.783,0.0
52002.0,STARLINK-3668,PAYLOAD,2023-04-14 09:15:44,15.08842255,0.0001364,53.2158,99.006,93.2083,266.9065,7.1577e-05,8.51e-06,0.0,0 STARLINK-3668,1 52002U 22025AY  23104.38593569  .00000851  00000-0  71577-4 0  9993,2 52002  53.2158  99.0060 0001364  93.2083 266.9065 15.08842255 60851,6917.873,95.437,540.682,538.795,0.0
52002.0,STARLINK-3668,PAYLOAD,2023-04-14 17:12:40,15.08838562,0.0001183,53.2149,97.5193,91.1873,268.9255,3.692e-05,3e-06,0.0,0 STARLINK-3668,1 52002U 22025AY  23104.71713896  .00000300  00000-0  36920-4 0  9999,2 52002  53.2149  97.5193 0001183  91.1873 268.9255 15.08838562 62417,6917.885,95.438,540.568,538.931,0.0
52002.0,STARLINK-3668,PAYLOAD,2023-04-15 09:06:32,15.08840996,0.0001258,53.2156,94.5448,96.4992,263.6144,2.6016e-05,1.26e-06,0.0,0 STARLINK-3668,1 52002U 22025AY  23105.37953865  .00000126  00000-0  26016-4 0  9995,2 52002  53.2156  94.5448 0001258  96.4992 263.6144 15.08840996 61005,6917.877,95.437,540.613,538.872,0.0
52002.0,STARLINK-3668,PAYLOAD,2023-04-16 07:21:55,15.08847498,0.0001198,53.2162,90.3827,90.6432,269.4697,3.9159e-05,3.36e-06,0.0,0 STARLINK-3668,1 52002U 22025AY  23106.30689465  .00000336  00000-0  39159-4 0  9996,2 52002  53.2162  90.3827 0001198  90.6432 269.4697 15.08847498 61141,6917.857,95.437,540.551,538.894,0.0
52002.0,STARLINK-3668,PAYLOAD,2023-04-17 04:01:57,15.08831301,0.0001308,53.2172,86.5217,84.0833,276.0308,6.86e-05,8.04e-06,0.0,0 STARLINK-3668,1 52002U 22025AY  23107.16802680  .00000804  00000-0  68600-4 0  9990,2 52002  53.2172  86.5217 0001308  84.0833 276.0308 15.08831301 62787,6917.907,95.438,540.677,538.867,0.0
52002.0,STARLINK-3668,PAYLOAD,2023-04-17 08:48:06,15.08840192,0.0001262,53.2164,85.6247,94.7286,265.3851,6.4637e-05,7.41e-06,0.0,0 STARLINK-3668,1 52002U 22025AY  23107.36674095  .00000741  00000-0  64637-4 0  9995,2 52002  53.2164  85.6247 0001262  94.7286 265.3851 15.08840192 62816,6917.88,95.438,540.618,538.872,0.0
52002.0,STARLINK-3668,PAYLOAD,2023-04-17 15:09:39,15.08837938,0.0001309,53.2166,84.4354,88.8224,271.2918,2.8342e-05,1.63e-06,0.0,0 STARLINK-3668,1 52002U 22025AY  23107.63170402  .00000163  00000-0  28342-4 0  9999,2 52002  53.2166  84.4354 0001309  88.8224 271.2918 15.08837938 61343,6917.887,95.438,540.657,538.846,0.0
52002.0,STARLINK-3668,PAYLOAD,2023-04-18 07:03:30,15.08837178,0.0001305,53.2173,81.4638,96.8587,263.2553,-1.5907e-05,-5.41e-06,0.0,0 STARLINK-3668,1 52002U 22025AY  23108.29410796 -.00000541  00000-0 -15907-4 0  9990,2 52002  53.2173  81.4638 0001305  96.8587 263.2553 15.08837178 61443,6917.889,95.438,540.657,538.851,0.0
52002.0,STARLINK-3668,PAYLOAD,2023-04-19 08:29:41,15.08841435,0.0001209,53.2165,76.704,96.8925,263.2204,5.8038e-05,6.36e-06,0.0,0 STARLINK-3668,1 52002U 22025AY  23109.35394803  .00000636  00000-0  58038-4 0  9993,2 52002  53.2165  76.7040 0001209  96.8925 263.2204 15.08841435 63117,6917.876,95.437,540.577,538.905,0.0
52002.0,STARLINK-3668,PAYLOAD,2023-04-20 06:45:04,15.08846307,0.0001421,53.2161,72.54,105.7748,254.3401,8.7615e-05,1.107e-05,0.0,0 STARLINK-3668,1 52002U 22025AY  23110.28130567  .00001107  00000-0  87615-4 0  9999,2 52002  53.2161  72.5400 0001421 105.7748 254.3401 15.08846307 61746,6917.861,95.437,540.709,538.743,0.0
